format  = 'OEF2.0'       ! file format
rectype = '1L'           ! record type (1L/ML)
elem    = 'EQU'          ! type of orbital elements
refsys  = ECLM J2000     ! default reference system
END_OF_HEADER
'va_000081'    57291.958166  1.459679920317  0.285833112  0.187508279 -0.001113525 -0.001969713   34.9391952 22.96  0.15  0
'va_000082'    57291.958166  1.459680612239  0.285833370  0.187508454 -0.001113525 -0.001969714   34.9392152 22.96  0.15  0
'va_000083'    57291.958166  1.459681298459  0.285833625  0.187508627 -0.001113526 -0.001969715   34.9392351 22.96  0.15  0
'va_000084'    57291.958166  1.459681979126  0.285833878  0.187508798 -0.001113527 -0.001969716   34.9392547 22.96  0.15  0
'va_000085'    57291.958166  1.459682654379  0.285834129  0.187508968 -0.001113528 -0.001969717   34.9392743 22.96  0.15  0
'va_000086'    57291.958166  1.459683324355  0.285834378  0.187509137 -0.001113529 -0.001969718   34.9392937 22.96  0.15  0
'va_000087'    57291.958166  1.459683989186  0.285834625  0.187509305 -0.001113530 -0.001969719   34.9393129 22.96  0.15  0
'va_000088'    57291.958166  1.459684648999  0.285834870  0.187509471 -0.001113531 -0.001969720   34.9393320 22.96  0.15  0
'va_000089'    57291.958166  1.459685303917  0.285835114  0.187509636 -0.001113532 -0.001969722   34.9393509 22.96  0.15  0
'va_000090'    57291.958166  1.459685954058  0.285835355  0.187509800 -0.001113533 -0.001969723   34.9393697 22.96  0.15  0
'va_000091'    57291.958166  1.459686599537  0.285835595  0.187509963 -0.001113534 -0.001969724   34.9393884 22.96  0.15  0
'va_000092'    57291.958166  1.459687240466  0.285835834  0.187510124 -0.001113535 -0.001969724   34.9394070 22.96  0.15  0
'va_000093'    57291.958166  1.459687876951  0.285836070  0.187510285 -0.001113536 -0.001969725   34.9394254 22.96  0.15  0
'va_000094'    57291.958166  1.459688509097  0.285836305  0.187510444 -0.001113536 -0.001969726   34.9394437 22.96  0.15  0
'va_000095'    57291.958166  1.459689137005  0.285836539  0.187510602 -0.001113537 -0.001969727   34.9394618 22.96  0.15  0
'va_000096'    57291.958166  1.459689760771  0.285836771  0.187510760 -0.001113538 -0.001969728   34.9394799 22.96  0.15  0
'va_000097'    57291.958166  1.459690380492  0.285837001  0.187510916 -0.001113539 -0.001969729   34.9394978 22.96  0.15  0
'va_000098'    57291.958166  1.459690996258  0.285837230  0.187511071 -0.001113540 -0.001969730   34.9395156 22.96  0.15  0
'va_000099'    57291.958166  1.459691608159  0.285837457  0.187511225 -0.001113541 -0.001969731   34.9395333 22.96  0.15  0
'va_000100'    57291.958166  1.459692216282  0.285837683  0.187511378 -0.001113542 -0.001969732   34.9395509 22.96  0.15  0
'va_000101'    57291.958166  1.459692820709  0.285837908  0.187511531 -0.001113542 -0.001969733   34.9395684 22.96  0.15  0
'va_000102'    57291.958166  1.459693421522  0.285838131  0.187511682 -0.001113543 -0.001969734   34.9395858 22.96  0.15  0
'va_000103'    57291.958166  1.459694018801  0.285838354  0.187511833 -0.001113544 -0.001969735   34.9396031 22.96  0.15  0
'va_000104'    57291.958166  1.459694612623  0.285838574  0.187511982 -0.001113545 -0.001969736   34.9396202 22.96  0.15  0
'va_000105'    57291.958166  1.459695203062  0.285838794  0.187512131 -0.001113546 -0.001969737   34.9396373 22.96  0.15  0
'va_000106'    57291.958166  1.459695790191  0.285839012  0.187512279 -0.001113546 -0.001969738   34.9396543 22.96  0.15  0
'va_000107'    57291.958166  1.459696374081  0.285839229  0.187512426 -0.001113547 -0.001969739   34.9396712 22.96  0.15  0
'va_000108'    57291.958166  1.459696954800  0.285839445  0.187512573 -0.001113548 -0.001969739   34.9396880 22.96  0.15  0
'va_000109'    57291.958166  1.459697532416  0.285839660  0.187512718 -0.001113549 -0.001969740   34.9397047 22.96  0.15  0
'va_000110'    57291.958166  1.459698106993  0.285839873  0.187512863 -0.001113550 -0.001969741   34.9397213 22.96  0.15  0
'va_000111'    57291.958166  1.459698678596  0.285840086  0.187513007 -0.001113550 -0.001969742   34.9397379 22.96  0.15  0
'va_000112'    57291.958166  1.459699247287  0.285840297  0.187513150 -0.001113551 -0.001969743   34.9397543 22.96  0.15  0
'va_000113'    57291.958166  1.459699813124  0.285840508  0.187513293 -0.001113552 -0.001969744   34.9397707 22.96  0.15  0
'va_000114'    57291.958166  1.459700376169  0.285840717  0.187513435 -0.001113553 -0.001969745   34.9397870 22.96  0.15  0
'va_000115'    57291.958166  1.459700936477  0.285840925  0.187513576 -0.001113554 -0.001969746   34.9398032 22.96  0.15  0
'va_000116'    57291.958166  1.459701494104  0.285841132  0.187513717 -0.001113554 -0.001969746   34.9398193 22.96  0.15  0
'va_000117'    57291.958166  1.459702049106  0.285841339  0.187513857 -0.001113555 -0.001969747   34.9398354 22.96  0.15  0
'va_000118'    57291.958166  1.459702601536  0.285841544  0.187513996 -0.001113556 -0.001969748   34.9398513 22.96  0.15  0
'va_000119'    57291.958166  1.459703151445  0.285841749  0.187514134 -0.001113557 -0.001969749   34.9398673 22.96  0.15  0
'va_000120'    57291.958166  1.459703698885  0.285841952  0.187514272 -0.001113557 -0.001969750   34.9398831 22.96  0.15  0
'va_000121'    57291.958166  1.459704243905  0.285842155  0.187514410 -0.001113558 -0.001969751   34.9398989 22.96  0.15  0
'va_000122'    57291.958166  1.459704786553  0.285842356  0.187514546 -0.001113559 -0.001969752   34.9399146 22.96  0.15  0
'va_000123'    57291.958166  1.459705326878  0.285842557  0.187514683 -0.001113560 -0.001969752   34.9399302 22.96  0.15  0
'va_000124'    57291.958166  1.459705864924  0.285842757  0.187514818 -0.001113560 -0.001969753   34.9399458 22.96  0.15  0
'va_000125'    57291.958166  1.459706400738  0.285842956  0.187514953 -0.001113561 -0.001969754   34.9399613 22.96  0.15  0
'va_000126'    57291.958166  1.459706934364  0.285843155  0.187515088 -0.001113562 -0.001969755   34.9399767 22.96  0.15  0
'va_000127'    57291.958166  1.459707465846  0.285843352  0.187515222 -0.001113563 -0.001969756   34.9399921 22.96  0.15  0
'va_000128'    57291.958166  1.459707995225  0.285843549  0.187515355 -0.001113563 -0.001969757   34.9400074 22.96  0.15  0
'va_000129'    57291.958166  1.459708522543  0.285843745  0.187515488 -0.001113564 -0.001969757   34.9400226 22.96  0.15  0
'va_000130'    57291.958166  1.459709047841  0.285843941  0.187515620 -0.001113565 -0.001969758   34.9400378 22.96  0.15  0
'va_000131'    57291.958166  1.459709571158  0.285844135  0.187515752 -0.001113566 -0.001969759   34.9400530 22.96  0.15  0
'va_000132'    57291.958166  1.459710092535  0.285844329  0.187515884 -0.001113566 -0.001969760   34.9400681 22.96  0.15  0
'va_000133'    57291.958166  1.459710612008  0.285844522  0.187516015 -0.001113567 -0.001969761   34.9400831 22.96  0.15  0
'va_000134'    57291.958166  1.459711129615  0.285844714  0.187516145 -0.001113568 -0.001969761   34.9400981 22.96  0.15  0
'va_000135'    57291.958166  1.459711645394  0.285844906  0.187516275 -0.001113568 -0.001969762   34.9401130 22.96  0.15  0
'va_000136'    57291.958166  1.459712159379  0.285845097  0.187516405 -0.001113569 -0.001969763   34.9401278 22.96  0.15  0
'va_000137'    57291.958166  1.459712671607  0.285845288  0.187516534 -0.001113570 -0.001969764   34.9401427 22.96  0.15  0
'va_000138'    57291.958166  1.459713182112  0.285845477  0.187516662 -0.001113571 -0.001969765   34.9401574 22.96  0.15  0
'va_000139'    57291.958166  1.459713690928  0.285845667  0.187516791 -0.001113571 -0.001969765   34.9401721 22.96  0.15  0
'va_000140'    57291.958166  1.459714198088  0.285845855  0.187516918 -0.001113572 -0.001969766   34.9401868 22.96  0.15  0
'va_000141'    57291.958166  1.459714703625  0.285846043  0.187517046 -0.001113573 -0.001969767   34.9402014 22.96  0.15  0
'va_000142'    57291.958166  1.459715207571  0.285846230  0.187517173 -0.001113573 -0.001969768   34.9402160 22.96  0.15  0
'va_000143'    57291.958166  1.459715709959  0.285846417  0.187517299 -0.001113574 -0.001969768   34.9402306 22.96  0.15  0
'va_000144'    57291.958166  1.459716210818  0.285846603  0.187517426 -0.001113575 -0.001969769   34.9402450 22.96  0.15  0
'va_000145'    57291.958166  1.459716710179  0.285846789  0.187517552 -0.001113575 -0.001969770   34.9402595 22.96  0.15  0
'va_000146'    57291.958166  1.459717208072  0.285846974  0.187517677 -0.001113576 -0.001969771   34.9402739 22.96  0.15  0
'va_000147'    57291.958166  1.459717704528  0.285847159  0.187517802 -0.001113577 -0.001969771   34.9402883 22.96  0.15  0
'va_000148'    57291.958166  1.459718199574  0.285847343  0.187517927 -0.001113578 -0.001969772   34.9403026 22.96  0.15  0
'va_000149'    57291.958166  1.459718693239  0.285847526  0.187518051 -0.001113578 -0.001969773   34.9403169 22.96  0.15  0
'va_000150'    57291.958166  1.459719185551  0.285847709  0.187518175 -0.001113579 -0.001969774   34.9403311 22.96  0.15  0
'va_000151'    57291.958166  1.459719676538  0.285847892  0.187518299 -0.001113580 -0.001969775   34.9403453 22.96  0.15  0
'va_000152'    57291.958166  1.459720166226  0.285848074  0.187518422 -0.001113580 -0.001969775   34.9403595 22.96  0.15  0
'va_000153'    57291.958166  1.459720654644  0.285848255  0.187518546 -0.001113581 -0.001969776   34.9403736 22.96  0.15  0
'va_000154'    57291.958166  1.459721141816  0.285848436  0.187518668 -0.001113582 -0.001969777   34.9403877 22.96  0.15  0
'va_000155'    57291.958166  1.459721627768  0.285848617  0.187518791 -0.001113582 -0.001969778   34.9404017 22.96  0.15  0
'va_000156'    57291.958166  1.459722112527  0.285848797  0.187518913 -0.001113583 -0.001969778   34.9404158 22.96  0.15  0
'va_000157'    57291.958166  1.459722596117  0.285848977  0.187519035 -0.001113584 -0.001969779   34.9404298 22.96  0.15  0
'va_000158'    57291.958166  1.459723078564  0.285849156  0.187519156 -0.001113584 -0.001969780   34.9404437 22.96  0.15  0
'va_000159'    57291.958166  1.459723559890  0.285849335  0.187519278 -0.001113585 -0.001969781   34.9404576 22.96  0.15  0
